{"records": [{"name": "Farmacia Bolego Villazzano", "@id": "way/36845889", "geometry": {"type": "Polygon", "coordinates": [[[11.143509, 46.0497479], [11.1434904, 46.0496537], [11.1436928, 46.0496352], [11.1436985, 46.0496534], [11.1438262, 46.0496403], [11.1438413, 46.049714], [11.143509, 46.0497479]]]}}, {"name": "Farmacia Vinante", "@id": "way/58427508", "geometry": {"type": "Polygon", "coordinates": [[[11.6895844, 46.4303502], [11.6895109, 46.4302117], [11.6896703, 46.4301715], [11.6897171, 46.4301597], [11.6897906, 46.4302982], [11.6895844, 46.4303502]]]}}, {"@id": "way/78344907", "geometry": {"type": "Polygon", "coordinates": [[[10.9418603, 46.0166504], [10.941998, 46.0166123], [10.9421072, 46.0168028], [10.9419696, 46.0168409], [10.9418603, 46.0166504]]]}}, {"@id": "way/82832580", "geometry": {"type": "Polygon", "coordinates": [[[11.1109328, 46.0982642], [11.110932, 46.0981792], [11.1110366, 46.0981788], [11.1110374, 46.0982638], [11.1109328, 46.0982642]]]}}, {"name": "Farmacia Chinaglia", "@id": "way/84055065", "geometry": {"type": "Polygon", "coordinates": [[[10.8922189, 45.8787343], [10.892403, 45.8786658], [10.8924377, 45.8787186], [10.8923767, 45.8787464], [10.892396, 45.8787722], [10.8922777, 45.8788147], [10.8922189, 45.8787343]]]}, "addr:city": "Nago-Torbole", "addr:housenumber": "6", "addr:postcode": "38069", "addr:street": "Via Stazione"}, {"name": "Parafarmacia", "@id": "way/106406092", "geometry": {"type": "Polygon", "coordinates": [[[11.2412426, 46.0609057], [11.2413348, 46.0609784], [11.2411628, 46.0610836], [11.2410705, 46.0610109], [11.2412426, 46.0609057]]]}}, {"name": "Farmacia communale", "@id": "way/149937041", "geometry": {"type": "Polygon", "coordinates": [[[10.8327468, 45.9183318], [10.8327987, 45.918186], [10.8328947, 45.9182006], [10.832848, 45.9183477], [10.8327468, 45.9183318]]]}}, {"name": "dott. Barbacovi  Giorgio", "@id": "way/160392708", "opening_hours": "Mo-Fr 08:30-12:00, 15:30-19:00", "geometry": {"type": "Polygon", "coordinates": [[[11.0909885, 45.9772925], [11.0909832, 45.9771831], [11.0911689, 45.9771787], [11.0911742, 45.9772882], [11.0909885, 45.9772925]]]}, "addr:city": "Aldeno", "addr:housenumber": "4", "addr:postcode": "38068", "addr:street": "Piazza Cesare Battisti"}, {"name": "Farmacia", "@id": "way/239014472", "geometry": {"type": "Polygon", "coordinates": [[[11.1511414, 46.1574124], [11.1511781, 46.1571772], [11.1513883, 46.1571929], [11.1513704, 46.1573076], [11.1513114, 46.1573032], [11.1512926, 46.1574237], [11.1511414, 46.1574124]]]}, "addr:city": "Verla di Giovo", "addr:housenumber": "1", "addr:postcode": "38030", "addr:street": "Via Molini"}, {"name": "Farmacia", "@id": "way/268031004", "geometry": {"type": "Polygon", "coordinates": [[[11.1737142, 45.9149439], [11.1738303, 45.9150941], [11.1736605, 45.9151591], [11.1735398, 45.9150134], [11.1737142, 45.9149439]]]}, "addr:city": "Folgaria", "addr:housenumber": "181", "addr:postcode": "38064", "addr:street": "Via E. Colpi"}, {"name": "Farmacia Turazza", "@id": "way/512340863", "geometry": {"type": "Polygon", "coordinates": [[[11.0019215, 46.0797405], [11.0019829, 46.0798297], [11.0018795, 46.0798639], [11.001899, 46.0798922], [11.0017505, 46.0799414], [11.0016697, 46.079824], [11.0019215, 46.0797405]]]}}, {"name": "Parafarmacia CONAD", "@id": "way/677962326", "geometry": {"type": "Polygon", "coordinates": [[[11.040005, 45.8912051], [11.0400543, 45.8911928], [11.040089, 45.8911841], [11.0401012, 45.8912075], [11.0400657, 45.8912164], [11.0400756, 45.8912356], [11.0400271, 45.8912478], [11.040005, 45.8912051]]]}}, {"name": "Comunale 5", "@id": "way/687011003", "opening_hours": "Tu-Su 09:00-19:30, Mo 14:00-19:30", "geometry": {"type": "Polygon", "coordinates": [[[11.01367, 45.8687213], [11.0137079, 45.8687333], [11.0137432, 45.8687453], [11.013718, 45.8687852], [11.0136437, 45.8687622], [11.01367, 45.8687213]]]}}, {"name": "Farmacia", "@id": "way/720552223", "geometry": {"type": "Polygon", "coordinates": [[[11.1113974, 46.0409262], [11.1112683, 46.0409378], [11.1112265, 46.0407141], [11.1113556, 46.0407025], [11.1113974, 46.0409262]]]}}, {"name": "Farmacia Comunale San Don\u00c3\u00a0", "@id": "node/247887427", "opening_hours": "Mo-Fr 08:30-12:00,15:00-19:00; Sa 08:30-12:00", "geometry": {"type": "Point", "coordinates": [11.1402607, 46.071609]}}, {"@id": "node/261081716", "opening_hours": "Mo-Sa 08:30-12:15,15:30-19:00", "geometry": {"type": "Point", "coordinates": [11.4362112, 46.2818543]}}, {"@id": "node/261086651", "opening_hours": "Mo-Fr 09:15-12:15", "geometry": {"type": "Point", "coordinates": [11.4172234, 46.2725633]}}, {"name": "Farmacia \"Bolghera\"", "@id": "node/265593284", "geometry": {"type": "Point", "coordinates": [11.1327642, 46.0580074]}, "addr:city": "Trento", "addr:housenumber": "8", "addr:postcode": "38122", "addr:street": "Largo Medaglie d'Oro"}, {"name": "Farmacia dall'Armi", "@id": "node/268401568", "geometry": {"type": "Point", "coordinates": [11.1219136, 46.0676744]}, "addr:city": "Trento", "addr:housenumber": "10", "addr:postcode": "38122", "addr:street": "Piazza del Duomo"}, {"name": "Farmacia Santoni", "@id": "node/268404116", "geometry": {"type": "Point", "coordinates": [11.1223981, 46.0677922]}, "addr:city": "Trento", "addr:housenumber": "20", "addr:postcode": "38122", "addr:street": "Piazza Mario Pasi"}, {"name": "Farmacia Lamberto Gallo", "@id": "node/268429704", "geometry": {"type": "Point", "coordinates": [11.1241882, 46.0674124]}, "addr:city": "Trento", "addr:housenumber": "51", "addr:postcode": "38122", "addr:street": "Via Mantova"}, {"name": "Morelli", "@id": "node/269032721", "geometry": {"type": "Point", "coordinates": [11.2480642, 46.1335627]}}, {"name": "Farmacia Santa Chiara", "@id": "node/269193734", "geometry": {"type": "Point", "coordinates": [11.1237066, 46.063667]}, "addr:city": "Trento", "addr:housenumber": "57", "addr:postcode": "38122", "addr:street": "Via Santa Croce"}, {"@id": "node/269348459", "geometry": {"type": "Point", "coordinates": [11.1956614, 46.1425363]}}, {"name": "Farmacia Barbacovi", "@id": "node/269615820", "opening_hours": "Mo-Fri 08:00-12:30; 14:45-19:15; Sa 8:00-12:30", "geometry": {"type": "Point", "coordinates": [11.0397548, 45.8830079]}, "addr:city": "Rovereto", "addr:housenumber": "11/b", "addr:postcode": "38068", "addr:street": "Via Benacense"}, {"@id": "node/271292343", "geometry": {"type": "Point", "coordinates": [11.1314234, 46.0892787]}}, {"name": "Farmacia Comunale", "@id": "node/278546539", "opening_hours": "luned\u00c3\u00ac\t08:30\u00e2\u20ac\u201c12:15, 15\u00e2\u20ac\u201c19 marted\u00c3\u00ac\t08:30\u00e2\u20ac\u201c12:15, 15\u00e2\u20ac\u201c19 mercoled\u00c3\u00ac\t08:30\u00e2\u20ac\u201c12:15, 15\u00e2\u20ac\u201c19 gioved\u00c3\u00ac\t08:30\u00e2\u20ac\u201c12:15, 15\u00e2\u20ac\u201c19venerd\u00c3\u00ac\t08:30\u00e2\u20ac\u201c12:15, 15\u00e2\u20ac\u201c19 sabato\t08:30\u00e2\u20ac\u201c12:15 domenica\tChiuso", "geometry": {"type": "Point", "coordinates": [11.1165086, 46.1264001]}, "addr:city": "Meano", "addr:housenumber": "30", "addr:postcode": "38121", "addr:street": "Via delle Sugarine"}, {"name": "Farmacia Comunale N.6", "@id": "node/288917447", "geometry": {"type": "Point", "coordinates": [11.1541385, 46.0663058]}, "addr:city": "Povo", "addr:housenumber": "5", "addr:postcode": "38123", "addr:street": "Piazza Giannantonio Manci"}, {"name": "Farmacia Comunale Cognola", "@id": "node/292015868", "geometry": {"type": "Point", "coordinates": [11.1419881, 46.0767326]}, "addr:city": "Cognola", "addr:housenumber": "10", "addr:postcode": "38121", "addr:street": "Piazza dell'Argentario"}, {"@id": "node/293870952", "geometry": {"type": "Point", "coordinates": [11.2429905, 46.0623036]}}, {"name": "Soave", "@id": "node/296362493", "geometry": {"type": "Point", "coordinates": [11.0444617, 45.8883664]}, "addr:city": "Rovereto", "addr:housenumber": "17", "addr:postcode": "38068", "addr:street": "Piazza delle Erbe"}, {"name": "Pavani", "@id": "node/298372268", "geometry": {"type": "Point", "coordinates": [11.0279101, 45.8858453]}}, {"name": "Madonna Delle Grazie", "@id": "node/299127646", "geometry": {"type": "Point", "coordinates": [10.8441919, 45.8997823]}}, {"name": "Farmacia dott.ssa Venezian", "@id": "node/299651022", "geometry": {"type": "Point", "coordinates": [10.8667757, 45.918749]}}, {"@id": "node/305506957", "geometry": {"type": "Point", "coordinates": [11.6732782, 46.4205104]}, "addr:housenumber": "4", "addr:street": "Strada de Soraporta"}, {"name": "Pizzo", "@id": "node/317916345", "geometry": {"type": "Point", "coordinates": [11.2373933, 46.067039]}}, {"name": "Farmacia Comunale", "@id": "node/333696242", "geometry": {"type": "Point", "coordinates": [10.8461831, 46.400882]}, "addr:city": "Rabbi", "addr:housenumber": "127", "addr:postcode": "38020"}, {"@id": "node/334743923", "geometry": {"type": "Point", "coordinates": [10.8105073, 46.3021572]}}, {"@id": "node/335694859", "geometry": {"type": "Point", "coordinates": [11.7420375, 46.4767228]}}, {"@id": "node/338894275", "geometry": {"type": "Point", "coordinates": [11.829935, 46.1756298]}}, {"@id": "node/354932919", "geometry": {"type": "Point", "coordinates": [11.299756, 46.0121165]}}, {"name": "Farmacia Romanese", "@id": "node/354933149", "opening_hours": "Mo-Sa 08:30-12:30,15:00-19:00", "geometry": {"type": "Point", "coordinates": [11.302148, 46.0114325]}}, {"name": "Farmacia Margonari Ada", "@id": "node/427547580", "opening_hours": "08:30-12:30,15:30-19:30", "geometry": {"type": "Point", "coordinates": [10.9662347, 46.142562]}, "addr:city": "Molveno", "addr:housenumber": "24b", "addr:postcode": "38018", "addr:street": "Piazza Guglielmo Marconi"}, {"name": "Farmacia Madonna Bianca", "@id": "node/427967401", "geometry": {"type": "Point", "coordinates": [11.1333734, 46.0401732]}}, {"name": "Farmacia \"San Bartolameo\"", "@id": "node/429202410", "geometry": {"type": "Point", "coordinates": [11.1296266, 46.0537028]}}, {"name": "Farmacia San Lorenzo", "@id": "node/431618064", "geometry": {"type": "Point", "coordinates": [11.119107, 46.076997]}, "addr:city": "Trento", "addr:housenumber": "1", "addr:postcode": "38121", "addr:street": "Piazza General Antonio Cantore"}, {"name": "Farmacia Comunale", "@id": "node/432480282", "geometry": {"type": "Point", "coordinates": [11.1215688, 46.0583792]}}, {"name": "Farmacia Comunale \"San Camillo\"", "@id": "node/437296845", "geometry": {"type": "Point", "coordinates": [11.1320121, 46.0655277]}, "addr:housenumber": "5", "addr:street": "Via Benedetto Giovanelli"}, {"name": "Farmacia \"Grandi\"", "@id": "node/468152872", "geometry": {"type": "Point", "coordinates": [11.1251916, 46.0738199]}, "addr:city": "Trento", "addr:housenumber": "7/A", "addr:postcode": "38122", "addr:street": "Via Alessandro Manzoni"}, {"name": "Farmacia Crescini", "@id": "node/482721037", "opening_hours": "Mo-Sa 08:30-12:00, Mo-Sa 15:00-19:00", "geometry": {"type": "Point", "coordinates": [11.2383047, 46.0598823]}, "addr:city": "Pergine Valsugana", "addr:housenumber": "8", "addr:postcode": "38057", "addr:street": "Piazza Giovanni Serra"}, {"@id": "node/520619249", "geometry": {"type": "Point", "coordinates": [11.2209553, 46.1747289]}}, {"name": "Farmacia Romani", "@id": "node/546523207", "opening_hours": "Mo-Sa 08:00-12:15, 15:00-19:15", "geometry": {"type": "Point", "coordinates": [11.1071424, 46.1413451]}, "addr:city": "Lavis", "addr:housenumber": "1", "addr:postcode": "38015", "addr:street": "Via Giuseppe Segantini"}, {"name": "Farmacia Comunale", "@id": "node/546894657", "geometry": {"type": "Point", "coordinates": [10.8498354, 45.894778]}}, {"name": "Farmacia Alla Madonna", "@id": "node/560073333", "opening_hours": "Mo-Sa 08:30-12:30,15:00-19:00", "geometry": {"type": "Point", "coordinates": [11.1230745, 46.0698069]}, "addr:city": "Trento", "addr:housenumber": "42", "addr:postcode": "38122", "addr:street": "Via Giannantonio Manci"}, {"name": "Farmacia", "@id": "node/613869965", "geometry": {"type": "Point", "coordinates": [10.8781988, 46.3311395]}, "addr:housenumber": "82", "addr:postcode": "38020", "addr:street": "Via Brescia"}, {"@id": "node/614841287", "opening_hours": "Mo-Sa 08:30-12:30,15:30-19:30", "geometry": {"type": "Point", "coordinates": [10.9121689, 46.3520987]}, "addr:city": "Mal\u00c3\u00a9", "addr:housenumber": "1", "addr:street": "Piazza Dante"}, {"name": "Farmacia comunale", "@id": "node/622583107", "geometry": {"type": "Point", "coordinates": [11.0425935, 45.9264458]}}, {"@id": "node/663185034", "geometry": {"type": "Point", "coordinates": [11.1820539, 46.089857]}}, {"name": "Farmacia Kamal", "@id": "node/666810145", "geometry": {"type": "Point", "coordinates": [11.4104062, 46.0529786]}}, {"name": "Farmacia Ottaviani", "@id": "node/690739201", "geometry": {"type": "Point", "coordinates": [10.9565781, 45.817258]}}, {"name": "Farmacia Calliano", "@id": "node/729605636", "geometry": {"type": "Point", "coordinates": [11.0940359, 45.9354307]}, "addr:housenumber": "19"}, {"@id": "node/737219864", "geometry": {"type": "Point", "coordinates": [10.6008618, 45.8902428]}}, {"name": "Farmacia Fusi", "@id": "node/753346159", "geometry": {"type": "Point", "coordinates": [10.5779212, 45.848452]}}, {"@id": "node/753358183", "geometry": {"type": "Point", "coordinates": [10.5404483, 45.8083537]}}, {"name": "Farmacia Comunale", "@id": "node/761569391", "geometry": {"type": "Point", "coordinates": [11.0419026, 45.9013786]}, "addr:city": "Rovereto", "addr:housenumber": "33/2", "addr:postcode": "38068", "addr:street": "Viale Trento"}, {"@id": "node/791724455", "geometry": {"type": "Point", "coordinates": [11.0422041, 45.8894599]}, "addr:city": "Rovereto", "addr:housenumber": "32", "addr:postcode": "38068", "addr:street": "Via delle Scuole"}, {"name": "Chinaglia", "@id": "node/821706072", "geometry": {"type": "Point", "coordinates": [10.8765174, 45.870688]}}, {"@id": "node/836513130", "geometry": {"type": "Point", "coordinates": [11.032628, 45.9151533]}, "addr:city": "Villa Lagarina", "addr:housenumber": "46", "addr:street": "25 Aprile"}, {"name": "Sanit Service s.r.l.", "@id": "node/853801303", "geometry": {"type": "Point", "coordinates": [11.1284969, 46.0669754]}}, {"name": "Campagnola", "@id": "node/885639404", "geometry": {"type": "Point", "coordinates": [11.0913849, 46.2129567]}, "addr:city": "Mezzolombardo", "addr:housenumber": "19", "addr:postcode": "38017", "addr:street": "Via Alcide De Gasperi"}, {"name": "Farmacia ai Solteri", "@id": "node/901169359", "geometry": {"type": "Point", "coordinates": [11.117635, 46.0923859]}, "addr:city": "Trento", "addr:housenumber": "40", "addr:postcode": "38121", "addr:street": "Via Renato Lunelli"}, {"name": "Farmacia Comunale", "@id": "node/902473412", "geometry": {"type": "Point", "coordinates": [10.900851, 45.9111219]}}, {"name": "Farmacia Bettinazzi - R. & T. Pharma Snc", "@id": "node/902524361", "geometry": {"type": "Point", "coordinates": [10.8856849, 45.9164495]}, "addr:postcode": "38062"}, {"name": "Farmacia Fontana", "@id": "node/905122124", "opening_hours": "Mo-Sa 8:00-12:30,15:00-19:30", "geometry": {"type": "Point", "coordinates": [11.1116753, 46.1087268]}, "addr:housenumber": "15", "addr:postcode": "38121", "addr:street": "Piazza della Libert\u00c3\u00a0"}, {"name": "Farmacia Nave San Rocco", "@id": "node/918934812", "geometry": {"type": "Point", "coordinates": [11.110319, 46.1672565]}}, {"name": "Farmacia Boni", "@id": "node/922133564", "geometry": {"type": "Point", "coordinates": [10.7244513, 46.0333617]}}, {"name": "Cobelli", "@id": "node/940784613", "geometry": {"type": "Point", "coordinates": [11.0432418, 45.8901056]}, "addr:city": "Rovereto", "addr:housenumber": "8", "addr:postcode": "38068", "addr:street": "Via Giuseppe Mazzini"}, {"name": "Sanit\u00c3\u00a0", "@id": "node/943811128", "geometry": {"type": "Point", "coordinates": [11.0346924, 46.3655522]}}, {"name": "Farmacia Comunale Via Benacense", "@id": "node/1013604666", "geometry": {"type": "Point", "coordinates": [11.0334873, 45.8783602]}}, {"name": "Gallina", "@id": "node/1100568047", "geometry": {"type": "Point", "coordinates": [10.7572486, 46.3113252]}, "addr:city": "Pellizzano", "addr:housenumber": "48", "addr:street": "Via Nazionale"}, {"name": "Darma Il Farmastore", "@id": "node/1112759391", "opening_hours": "Mo 14:30-20:00; Tu-Su 09:00-20:00", "geometry": {"type": "Point", "coordinates": [11.223445, 46.068036]}, "addr:city": "Pergine Valsugana", "addr:postcode": "38057", "addr:street": "Via Tamarisi"}, {"name": "Farmacia Gagliardi", "@id": "node/1117559404", "geometry": {"type": "Point", "coordinates": [10.8423483, 46.0046234]}, "addr:housenumber": "1", "addr:street": "Via De Gasperi"}, {"name": "Farmacia Comunale", "@id": "node/1129326761", "geometry": {"type": "Point", "coordinates": [11.1206301, 46.0534713]}, "addr:street": "Via San Pio X"}, {"@id": "node/1137509497", "opening_hours": "Mo-Fr 08:30-12:00,15:00-19:00; Sa 08:30-12:00", "geometry": {"type": "Point", "coordinates": [11.1298443, 46.1906731]}}, {"name": "Farmacia Bailo", "@id": "node/1172425953", "opening_hours": "Mo-Sa 08:30-12:15,15:30-19:00; PH closed", "geometry": {"type": "Point", "coordinates": [11.4548787, 46.0537033]}, "addr:city": "Borgo Valsugana", "addr:housenumber": "3a", "addr:postcode": "38051", "addr:street": "Piazzale Dante Alighieri"}, {"@id": "node/1201851079", "geometry": {"type": "Point", "coordinates": [11.8018422, 46.2620746]}}, {"name": "Parafarmacia", "@id": "node/1220020564", "geometry": {"type": "Point", "coordinates": [11.1228747, 46.0662491]}, "addr:city": "Trento", "addr:housenumber": "6", "addr:postcode": "38122", "addr:street": "Via Santissima Trinit\u00c3\u00a1"}, {"name": "Farmacia comunale", "@id": "node/1241248622", "geometry": {"type": "Point", "coordinates": [11.2177362, 46.084496]}}, {"@id": "node/1293797370", "geometry": {"type": "Point", "coordinates": [11.0700857, 45.9291659]}}, {"name": "Farmacia Brancaleoni", "@id": "node/1308870029", "geometry": {"type": "Point", "coordinates": [11.0974831, 46.1522371]}, "addr:city": "Terre d'Adige", "addr:housenumber": "11/B", "addr:postcode": "38010", "addr:street": "Via Trento"}, {"name": "Farmacia De Gerloni", "@id": "node/1346805866", "geometry": {"type": "Point", "coordinates": [11.0585528, 46.073149]}}, {"name": "Farmacia", "@id": "node/1358269031", "geometry": {"type": "Point", "coordinates": [11.8062406, 46.1542755]}}, {"name": "La farmacia di Roncafort", "@id": "node/1359825886", "geometry": {"type": "Point", "coordinates": [11.1020825, 46.0984636]}, "addr:housenumber": "31", "addr:street": "Via Luigi Caneppele"}, {"name": "Farmacia Comunale San Rocco", "@id": "node/1374736035", "geometry": {"type": "Point", "coordinates": [11.0633565, 45.916653]}}, {"@id": "node/1400293658", "geometry": {"type": "Point", "coordinates": [11.2584887, 46.1874748]}}, {"name": "Farmacia Centrale", "@id": "node/1532671600", "geometry": {"type": "Point", "coordinates": [11.4577617, 46.0539272]}, "addr:city": "Borgo Valsugana", "addr:housenumber": "40", "addr:postcode": "38051", "addr:street": "Corso Ausugum"}, {"@id": "node/1538128723", "geometry": {"type": "Point", "coordinates": [11.6595457, 46.3766041]}}, {"@id": "node/1669381238", "opening_hours": "Mo-Fr 09:00-12:00", "geometry": {"type": "Point", "coordinates": [11.1716149, 46.2484813]}, "addr:city": "Rover\u00c3\u00a9 della Luna", "addr:housenumber": "12", "addr:postcode": "38030", "addr:street": "Via Rauti"}, {"@id": "node/1695145678", "geometry": {"type": "Point", "coordinates": [11.0084513, 45.840892]}}, {"name": "Zanini", "@id": "node/1754018682", "opening_hours": "Mo-Fr 08:30-12:15,15:30-19:15;Sa 08:30-12:15", "geometry": {"type": "Point", "coordinates": [11.118874, 46.2146886]}, "addr:city": "Mezzocorona", "addr:housenumber": "13", "addr:postcode": "38016", "addr:street": "Piazza San Gottardo"}, {"name": "Farmacia Comunale Castelnuovo", "@id": "node/1764382893", "geometry": {"type": "Point", "coordinates": [11.4926158, 46.0522737]}, "addr:city": "Castelnuovo", "addr:housenumber": "15a", "addr:postcode": "38050", "addr:street": "Viale Venezia"}, {"@id": "node/1840041805", "geometry": {"type": "Point", "coordinates": [10.6927744, 46.2988561]}}, {"@id": "node/1889573420", "geometry": {"type": "Point", "coordinates": [10.8426658, 45.8865017]}}, {"name": "Accorsi", "@id": "node/1904668697", "geometry": {"type": "Point", "coordinates": [10.8409706, 45.8852245]}, "addr:postcode": "38066"}, {"@id": "node/1984744605", "geometry": {"type": "Point", "coordinates": [11.2603123, 45.9950813]}}, {"name": "Farmacia all'Angelo", "@id": "node/1987626808", "geometry": {"type": "Point", "coordinates": [11.0479742, 46.2744403]}, "addr:city": "Denno", "addr:housenumber": "10", "addr:postcode": "38010", "addr:street": "Via Guglielmo Marconi"}, {"name": "Farmacia Comunale", "@id": "node/1998966129", "opening_hours": "Mo-Fr 08:30-19:00; Sa 08:30-12:00", "geometry": {"type": "Point", "coordinates": [11.1123177, 46.070551]}, "addr:city": "Trento", "addr:housenumber": "19/A", "addr:postcode": "38122", "addr:street": "Via Brescia"}, {"name": "farmacia comunale", "@id": "node/2103936507", "geometry": {"type": "Point", "coordinates": [11.0082956, 45.8847764]}}, {"name": "Farmacia di Gardolo", "@id": "node/2180096986", "opening_hours": "Mo 15:00-19:00; Tu-Sa 09:00-12:00,15:00-19:00", "geometry": {"type": "Point", "coordinates": [11.10862, 46.1064]}, "addr:city": "Gardolo", "addr:housenumber": "32/4", "addr:postcode": "38121", "addr:street": "Via Soprasasso"}, {"name": "Farmacia Comunale", "@id": "node/2304073385", "geometry": {"type": "Point", "coordinates": [11.1119943, 46.1395384]}, "addr:city": "Lavis", "addr:housenumber": "66", "addr:postcode": "38015", "addr:street": "Via Giacomo Matteotti"}, {"name": "Farmacia Campagnolo", "@id": "node/2316463120", "geometry": {"type": "Point", "coordinates": [11.1055828, 46.0167581]}, "addr:city": "Romagnano", "addr:housenumber": "14", "addr:postcode": "38123", "addr:street": "Via alle Sette Fontane"}, {"name": "Farmacia Borsato", "@id": "node/2338570939", "geometry": {"type": "Point", "coordinates": [11.5239854, 46.0637581]}, "addr:city": "Castel Ivano", "addr:housenumber": "29", "addr:postcode": "38059", "addr:street": "Via Roma"}, {"name": "Farmacia Baldrachi", "@id": "node/2503069997", "geometry": {"type": "Point", "coordinates": [11.0261202, 46.3305292]}, "addr:city": "Tuenno", "addr:housenumber": "29", "addr:street": "Via Enrico Leonardi"}, {"name": "Farmacia Ravagni", "@id": "node/2517370192", "geometry": {"type": "Point", "coordinates": [11.0034033, 45.7591484]}}, {"name": "Farmacia Franzellin", "@id": "node/2518516216", "geometry": {"type": "Point", "coordinates": [11.0021142, 45.7575766]}}, {"name": "Folgaresi", "@id": "node/2524024263", "geometry": {"type": "Point", "coordinates": [10.9717397, 45.9933445]}}, {"name": "Farmacia Pieve di Dino Ceschinelli", "@id": "node/2525035025", "geometry": {"type": "Point", "coordinates": [10.6391288, 45.9395171]}}, {"name": "Farmacia Clarina", "@id": "node/2603444254", "geometry": {"type": "Point", "coordinates": [11.1256929, 46.0487161]}, "addr:city": "Trento", "addr:housenumber": "112", "addr:postcode": "38123", "addr:street": "Via Alcide Degasperi"}, {"name": "Farmacia Teseo Francesco", "@id": "node/2628566892", "geometry": {"type": "Point", "coordinates": [11.4808667, 46.0703675]}}, {"@id": "node/2868373144", "geometry": {"type": "Point", "coordinates": [10.9521966, 45.8915027]}}, {"@id": "node/2875736483", "geometry": {"type": "Point", "coordinates": [10.9790058, 45.8519644]}}, {"@id": "node/2888545662", "geometry": {"type": "Point", "coordinates": [11.1181305, 45.7827256]}}, {"@id": "node/2967727727", "geometry": {"type": "Point", "coordinates": [11.4620734, 46.2907521]}}, {"@id": "node/3028910043", "geometry": {"type": "Point", "coordinates": [10.8545176, 46.0519685]}}, {"name": "Farmacie Comunali", "@id": "node/3239277010", "geometry": {"type": "Point", "coordinates": [11.0252009, 45.9118599]}}, {"@id": "node/3265198856", "geometry": {"type": "Point", "coordinates": [10.6935363, 46.3510072]}}, {"@id": "node/3326962822", "geometry": {"type": "Point", "coordinates": [10.9395448, 45.734889]}}, {"@id": "node/3424970462", "geometry": {"type": "Point", "coordinates": [11.2350016, 46.0414192]}}, {"@id": "node/3434314800", "geometry": {"type": "Point", "coordinates": [11.0889288, 46.3485815]}, "addr:city": "Coredo", "addr:postcode": "38012"}, {"name": "Thaler", "@id": "node/3540776707", "geometry": {"type": "Point", "coordinates": [11.0403937, 45.8898791]}}, {"name": "Farmacia Valle dei Mocheni", "@id": "node/3612862992", "opening_hours": "Mo-Fr 08:30-12:00,15:00-19:00; Sa 08:30-12:00; Su off", "geometry": {"type": "Point", "coordinates": [11.3021324, 46.1091824]}, "addr:city": "Sant'Orsola Terme", "addr:housenumber": "75", "addr:postcode": "38050", "addr:street": "Localit\u00c3\u00a0 Pintarei"}, {"@id": "node/3715080105", "geometry": {"type": "Point", "coordinates": [10.7362286, 46.1010416]}}, {"name": "Farmacia dott.ssa Venezian", "@id": "node/3755058550", "geometry": {"type": "Point", "coordinates": [10.8653341, 45.9186901]}}, {"@id": "node/3786688689", "geometry": {"type": "Point", "coordinates": [11.6594938, 46.3770566]}}, {"name": "Festa Parafarmacia Profumeria", "@id": "node/3787675288", "geometry": {"type": "Point", "coordinates": [11.6609796, 46.376141]}}, {"name": "Farmacia Comunale n\u00c2\u00b01", "@id": "node/3860156898", "geometry": {"type": "Point", "coordinates": [11.0401438, 45.8917455]}, "addr:city": "Rovereto", "addr:postcode": "38068"}, {"@id": "node/3951262706", "geometry": {"type": "Point", "coordinates": [11.2413667, 46.0605568]}, "addr:city": "Pergine Valsugana", "addr:housenumber": "1", "addr:postcode": "38057", "addr:street": "Piazza Mario Garbari"}, {"name": "Dispensario farmaceutico", "@id": "node/4000752464", "geometry": {"type": "Point", "coordinates": [11.5525707, 46.0438265]}}, {"name": "Farmacia S. Giorgio", "@id": "node/4013472289", "geometry": {"type": "Point", "coordinates": [11.0281746, 45.8941621]}}, {"name": "Parafarmacia E' Qui", "@id": "node/4079555689", "geometry": {"type": "Point", "coordinates": [10.8541457, 45.8826228]}, "addr:city": "Riva del Garda", "addr:housenumber": "5", "addr:postcode": "38066", "addr:street": "Via Padova"}, {"name": "Farmacia Gallina", "@id": "node/4123995194", "geometry": {"type": "Point", "coordinates": [10.8016006, 46.3159016]}, "addr:city": "Mezzana", "addr:housenumber": "48", "addr:postcode": "38020", "addr:street": "Via IV Novembre"}, {"name": "Farmacia Comunale", "@id": "node/4146886717", "geometry": {"type": "Point", "coordinates": [11.6339287, 46.0625095]}, "addr:city": "Castello Tesino", "addr:housenumber": "12", "addr:postcode": "38053", "addr:street": "Via Dante"}, {"name": "Farmacia Pieve Tesino", "@id": "node/4149795061", "geometry": {"type": "Point", "coordinates": [11.6117172, 46.0681123]}, "addr:city": "Pieve Tesino"}, {"name": "Farmacia Alberto Foletto", "@id": "node/4456510054", "geometry": {"type": "Point", "coordinates": [10.7323059, 45.8885959]}, "addr:city": "Ledro", "addr:housenumber": "4", "addr:postcode": "38067", "addr:street": "Via Nuova"}, {"name": "Parafarmacia Campagnola", "@id": "node/4557760205", "opening_hours": "Mo-Su 09:00-19:00", "geometry": {"type": "Point", "coordinates": [11.1000444, 46.2071628]}, "addr:city": "Mezzolombardo", "addr:housenumber": "65/A", "addr:postcode": "38017", "addr:street": "Via Trento"}, {"name": "Farmacia", "@id": "node/4582777035", "geometry": {"type": "Point", "coordinates": [11.7329018, 46.15527]}}, {"name": "Parafarmacia", "@id": "node/4585088773", "geometry": {"type": "Point", "coordinates": [11.4602172, 46.2910265]}}, {"name": "Mutalipassi", "@id": "node/4643920791", "geometry": {"type": "Point", "coordinates": [10.8451646, 45.8868604]}, "addr:city": "Riva del Garda", "addr:housenumber": "12", "addr:postcode": "38066", "addr:street": "Via Lutti"}, {"name": "Farmacia Veterinaria", "@id": "node/4644165788", "geometry": {"type": "Point", "coordinates": [11.1234078, 46.0708418]}}, {"name": "Farmacia Scaglia", "@id": "node/4654517956", "geometry": {"type": "Point", "coordinates": [10.7654611, 46.1601535]}, "addr:street": "Viale della pace"}, {"name": "Tecnisan articoli sanitari", "@id": "node/4762621253", "geometry": {"type": "Point", "coordinates": [11.1286721, 46.0445596]}}, {"@id": "node/5400760154", "geometry": {"type": "Point", "coordinates": [10.8724215, 46.0353784]}}, {"name": "Farmacia Nardelli Gabriele", "@id": "node/5401214894", "opening_hours": "Mo-Fr 08:30-12:00, Mo-Sa 15:00-19:00, Sa 09:00-12:00", "geometry": {"type": "Point", "coordinates": [10.914025, 45.9606101]}, "addr:city": "Dro", "addr:housenumber": "14", "addr:postcode": "38074", "addr:street": "Via Giuseppe Mazzini"}, {"name": "Igea", "@id": "node/5669932017", "opening_hours": "Mo-Fr 08:30-12:30,15:00-19:00, Sa 08:30-12:30", "geometry": {"type": "Point", "coordinates": [11.1280488, 46.0608378]}, "addr:city": "Trento", "addr:housenumber": "68", "addr:street": "Via Milano"}, {"@id": "node/5779215184", "geometry": {"type": "Point", "coordinates": [11.1366928, 46.4375538]}}, {"@id": "node/5840514317", "geometry": {"type": "Point", "coordinates": [10.5851467, 46.2592562]}}, {"name": "Farmacia Santoni", "@id": "node/5859452716", "geometry": {"type": "Point", "coordinates": [11.018394, 45.8843881]}}, {"@id": "node/6125013169", "geometry": {"type": "Point", "coordinates": [11.0170999, 46.4052386]}}, {"@id": "node/6135283574", "geometry": {"type": "Point", "coordinates": [10.8740406, 46.3260432]}, "addr:city": "Dimaro", "addr:postcode": "38025"}, {"name": "Comunale", "@id": "node/6169477931", "geometry": {"type": "Point", "coordinates": [11.1100893, 45.9415]}}, {"@id": "node/6181555281", "geometry": {"type": "Point", "coordinates": [11.0867259, 46.2646016]}}, {"name": "Farmacia Giupponi", "@id": "node/6239519785", "geometry": {"type": "Point", "coordinates": [11.1278389, 46.0069356]}}, {"name": "Parafarmacia", "@id": "node/6256572711", "geometry": {"type": "Point", "coordinates": [11.7702598, 46.477323]}}, {"name": "Farmacia San Giovanni", "@id": "node/6589342086", "opening_hours": "Mo-Sa 08:30-12:30, 15:30-19:30; Su 09:00-12:00, 16:00-19:00", "geometry": {"type": "Point", "coordinates": [11.6754117, 46.4200601]}, "addr:housenumber": "24", "addr:postcode": "38036", "addr:street": "Strada Neva"}, {"@id": "node/6609204555", "geometry": {"type": "Point", "coordinates": [11.6339731, 46.0163984]}}, {"name": "Farmacia Malfatti", "@id": "node/6655079622", "geometry": {"type": "Point", "coordinates": [11.1949906, 46.004345]}}, {"name": "Farmacia", "@id": "node/6739124785", "geometry": {"type": "Point", "coordinates": [10.9082944, 46.0772173]}}, {"name": "Farmacia De Maffei", "@id": "node/7057868609", "opening_hours": "Mo-Sa 08:15-19:15", "geometry": {"type": "Point", "coordinates": [11.0330406, 46.3630657]}, "addr:city": "Cles", "addr:housenumber": "30", "addr:postcode": "38023", "addr:street": "Via Alcide Degasperi"}, {"name": "Farmacia Redi", "@id": "node/7274656231", "geometry": {"type": "Point", "coordinates": [10.8799242, 45.9175297]}, "addr:city": "Arco", "addr:housenumber": "3", "addr:postcode": "38062", "addr:street": "Via Nas"}, {"name": "Valore salute", "@id": "node/7556597095", "opening_hours": "Mo-Sa 08:30-12:30,15:00-19:00; PH closed", "geometry": {"type": "Point", "coordinates": [10.9524923, 46.0456752]}}, {"@id": "node/7576263510", "geometry": {"type": "Point", "coordinates": [11.0480565, 46.2175233]}}, {"@id": "node/7644628848", "geometry": {"type": "Point", "coordinates": [11.073457, 45.869393]}}, {"name": "Farmacia Vinotti", "@id": "node/7941509977", "opening_hours": "Mo-Sa 08:30-12:15; Mo-Sa 15:00-19:00", "geometry": {"type": "Point", "coordinates": [11.0655384, 46.320896]}}]}